{"type": "FeatureCollection", "features": [ {"type": "Feature", "properties": {"norad_id": 38552, "name": "METEOSAT-10 (MSG-3)", "group": "weather", "lat": 0.11333843799225342, "lon": -120.05803826269243, "alt_km": 35784.55511551196, "timestamp": "2025-12-22T09:53:37.051972+00:00", "meta": {"OBJECT_NAME": "METEOSAT-10 (MSG-3)", "OBJECT_ID": "2012-035B", "EPOCH": "2025-12-22T01:10:55.257024", "MEAN_MOTION": 1.00276818, "ECCENTRICITY": 7.13e-05, "INCLINATION": 4.2491, "RA_OF_ASC_NODE": 61.6977, "ARG_OF_PERICENTER": 266.7505, "MEAN_ANOMALY": 140.4613, "EPHEMERIS_TYPE": 0, "CLASSIFICATION_TYPE": "U", "NORAD_CAT_ID": 38552, "ELEMENT_SET_NO": 999, "REV_AT_EPOCH": 4908, "BSTAR": 0, "MEAN_MOTION_DOT": 1.6e-07, "MEAN_MOTION_DDOT": 0}, "tle": {"line1": "1 38552U 12035B   25356.04925066  .00000016  00000+0  00000+0 0  9992", "line2": "2 38552   4.2491  61.6977 0000713 266.7505 140.4613  1.00276818 49086"}}, "geometry": {"type": "Point", "coordinates": [-120.05803826269243, 0.11333843799225342]}}, {"type": "Feature", "properties": {"norad_id": 38771, "name": "METOP-B", "group": "weather", "lat": -53.93659156536143, "lon": -145.9002917421068, "alt_km": 828.3891818456741, "timestamp": "2025-12-22T09:53:37.051983+00:00", "meta": {"OBJECT_NAME": "METOP-B", "OBJECT_ID": "2012-049A", "EPOCH": "2025-12-22T02:02:06.027936", "MEAN_MOTION": 14.21411843, "ECCENTRICITY": 0.0003196, "INCLINATION": 98.6785, "RA_OF_ASC_NODE": 45.8846, "ARG_OF_PERICENTER": 124.4139, "MEAN_ANOMALY": 235.7341, "EPHEMERIS_TYPE": 0, "CLASSIFICATION_TYPE": "U", "NORAD_CAT_ID": 38771, "ELEMENT_SET_NO": 999, "REV_AT_EPOCH": 68810, "BSTAR": 8.5158e-05, "MEAN_MOTION_DOT": 1.43e-06, "MEAN_MOTION_DDOT": 0}, "tle": {"line1": "1 38771U 12049A   25356.08479199  .00000143  00000+0  85158-4 0  9998", "line2": "2 38771  98.6785  45.8846 0003196 124.4139 235.7341 14.21411843688106"}}, "geometry": {"type": "Point", "coordinates": [-145.9002917421068, -53.93659156536143]}}, {"type": "Feature", "properties": {"norad_id": 39216, "name": "INSAT-3D", "group": "weather", "lat": -1.4225065592514956, "lon": 9.142890024675307, "alt_km": 35790.13547664476, "timestamp": "2025-12-22T09:53:37.051994+00:00", "meta": {"OBJECT_NAME": "INSAT-3D", "OBJECT_ID": "2013-038B", "EPOCH": "2025-12-21T22:22:26.393088", "MEAN_MOTION": 1.00276295, "ECCENTRICITY": 0.0001821, "INCLINATION": 1.4671, "RA_OF_ASC_NODE": 84.8937, "ARG_OF_PERICENTER": 152.8025, "MEAN_ANOMALY": 318.1565, "EPHEMERIS_TYPE": 0, "CLASSIFICATION_TYPE": "U", "NORAD_CAT_ID": 39216, "ELEMENT_SET_NO": 999, "REV_AT_EPOCH": 4530, "BSTAR": 0, "MEAN_MOTION_DOT": -3.17e-06, "MEAN_MOTION_DDOT": 0}, "tle": {"line1": "1 39216U 13038B   25355.93224992 -.00000317  00000+0  00000+0 0  9996", "line2": "2 39216   1.4671  84.8937 0001821 152.8025 318.1565  1.00276295 45309"}}, "geometry": {"type": "Point", "coordinates": [9.142890024675307, -1.4225065592514956]}}, {"type": "Feature", "properties": {"norad_id": 39260, "name": "FENGYUN 3C", "group": "weather", "lat": -74.4575966849122, "lon": 6.04839026835289, "alt_km": 851.7604199252173, "timestamp": "2025-12-22T09:53:37.052005+00:00", "meta": {"OBJECT_NAME": "FENGYUN 3C", "OBJECT_ID": "2013-052A", "EPOCH": "2025-12-22T05:10:07.294080", "MEAN_MOTION": 14.15699034, "ECCENTRICITY": 0.0014804, "INCLINATION": 98.4774, "RA_OF_ASC_NODE": 333.4325, "ARG_OF_PERICENTER": 168.5371, "MEAN_ANOMALY": 191.6144, "EPHEMERIS_TYPE": 0, "CLASSIFICATION_TYPE": "U", "NORAD_CAT_ID": 39260, "ELEMENT_SET_NO": 999, "REV_AT_EPOCH": 63352, "BSTAR": 6.5895e-05, "MEAN_MOTION_DOT": 8.8e-07, "MEAN_MOTION_DDOT": 0}, "tle": {"line1": "1 39260U 13052A   25356.21536220  .00000088  00000+0  65895-4 0  9995", "line2": "2 39260  98.4774 333.4325 0014804 168.5371 191.6144 14.15699034633529"}}, "geometry": {"type": "Point", "coordinates": [6.04839026835289, -74.4575966849122]}}, {"type": "Feature", "properties": {"norad_id": 40069, "name": "METEOR-M 2", "group": "weather", "lat": 75.20992576071308, "lon": -171.91812120200342, "alt_km": 812.6061514416942, "timestamp": "2025-12-22T09:53:37.052015+00:00", "meta": {"OBJECT_NAME": "METEOR-M 2", "OBJECT_ID": "2014-037A", "EPOCH": "2025-12-22T04:20:46.577760", "MEAN_MOTION": 14.21390164, "ECCENTRICITY": 0.0005449, "INCLINATION": 98.4906, "RA_OF_ASC_NODE": 333.4037, "ARG_OF_PERICENTER": 179.8181, "MEAN_ANOMALY": 180.3, "EPHEMERIS_TYPE": 0, "CLASSIFICATION_TYPE": "U", "NORAD_CAT_ID": 40069, "ELEMENT_SET_NO": 999, "REV_AT_EPOCH": 59417, "BSTAR": 8.8626e-05, "MEAN_MOTION_DOT": 1.52e-06, "MEAN_MOTION_DDOT": 0}, "tle": {"line1": "1 40069U 14037A   25356.18109465  .00000152  00000+0  88626-4 0  9990", "line2": "2 40069  98.4906 333.4037 0005449 179.8181 180.3000 14.21390164594176"}}, "geometry": {"type": "Point", "coordinates": [-171.91812120200342, 75.20992576071308]}}, {"type": "Feature", "properties": {"norad_id": 40267, "name": "HIMAWARI-8", "group": "weather", "lat": -0.0166203195680855, "lon": 20.285876699482657, "alt_km": 35786.112158051685, "timestamp": "2025-12-22T09:53:37.052027+00:00", "meta": {"OBJECT_NAME": "HIMAWARI-8", "OBJECT_ID": "2014-060A", "EPOCH": "2025-12-21T22:25:33.595104", "MEAN_MOTION": 1.00270403, "ECCENTRICITY": 9.04e-05, "INCLINATION": 0.0391, "RA_OF_ASC_NODE": 132.8163, "ARG_OF_PERICENTER": 163.8668, "MEAN_ANOMALY": 271.1169, "EPHEMERIS_TYPE": 0, "CLASSIFICATION_TYPE": "U", "NORAD_CAT_ID": 40267, "ELEMENT_SET_NO": 999, "REV_AT_EPOCH": 4098, "BSTAR": 0, "MEAN_MOTION_DOT": -2.53e-06, "MEAN_MOTION_DDOT": 0}, "tle": {"line1": "1 40267U 14060A   25355.93441661 -.00000253  00000+0  00000+0 0  9993", "line2": "2 40267   0.0391 132.8163 0000904 163.8668 271.1169  1.00270403 40984"}}, "geometry": {"type": "Point", "coordinates": [20.285876699482657, -0.0166203195680855]}}, {"type": "Feature", "properties": {"norad_id": 40367, "name": "FENGYUN 2G", "group": "weather", "lat": -5.1765822160368575, "lon": -21.173432818119625, "alt_km": 35784.28296563729, "timestamp": "2025-12-22T09:53:37.052039+00:00", "meta": {"OBJECT_NAME": "FENGYUN 2G", "OBJECT_ID": "2014-090A", "EPOCH": "2025-12-22T01:39:14.264640", "MEAN_MOTION": 1.00260639, "ECCENTRICITY": 0.000265, "INCLINATION": 5.1903, "RA_OF_ASC_NODE": 74.9911, "ARG_OF_PERICENTER": 204.0902, "MEAN_ANOMALY": 295.8253, "EPHEMERIS_TYPE": 0, "CLASSIFICATION_TYPE": "U", "NORAD_CAT_ID": 40367, "ELEMENT_SET_NO": 999, "REV_AT_EPOCH": 4022, "BSTAR": 0, "MEAN_MOTION_DOT": -2.79e-06, "MEAN_MOTION_DDOT": 0}, "tle": {"line1": "1 40367U 14090A   25356.06891510 -.00000279  00000+0  00000+0 0  9992", "line2": "2 40367   5.1903  74.9911 0002650 204.0902 295.8253  1.00260639 40220"}}, "geometry": {"type": "Point", "coordinates": [-21.173432818119625, -5.1765822160368575]}}, {"type": "Feature", "properties": {"norad_id": 40732, "name": "METEOSAT-11 (MSG-4)", "group": "weather", "lat": 0.13093550809211094, "lon": -111.1827151345379, "alt_km": 35783.87171066621, "timestamp": "2025-12-22T09:53:37.052050+00:00", "meta": {"OBJECT_NAME": "METEOSAT-11 (MSG-4)", "OBJECT_ID": "2015-034A", "EPOCH": "2025-12-22T01:13:32.505888", "MEAN_MOTION": 1.00270407, "ECCENTRICITY": 7.89e-05, "INCLINATION": 2.7595, "RA_OF_ASC_NODE": 71.9774, "ARG_OF_PERICENTER": 136.9647, "MEAN_ANOMALY": 269.4964, "EPHEMERIS_TYPE": 0, "CLASSIFICATION_TYPE": "U", "NORAD_CAT_ID": 40732, "ELEMENT_SET_NO": 999, "REV_AT_EPOCH": 544, "BSTAR": 0, "MEAN_MOTION_DOT": 8.1e-07, "MEAN_MOTION_DDOT": 0}, "tle": {"line1": "1 40732U 15034A   25356.05107067  .00000081  00000+0  00000+0 0  9993", "line2": "2 40732   2.7595  71.9774 0000789 136.9647 269.4964  1.00270407  5445"}}, "geometry": {"type": "Point", "coordinates": [-111.1827151345379, 0.13093550809211094]}}, {"type": "Feature", "properties": {"norad_id": 41105, "name": "ELEKTRO-L 2", "group": "weather", "lat": 2.8797637803847858, "lon": -134.74335990564666, "alt_km": 35777.3182331922, "timestamp": "2025-12-22T09:53:37.052062+00:00", "meta": {"OBJECT_NAME": "ELEKTRO-L 2", "OBJECT_ID": "2015-074A", "EPOCH": "2025-12-22T01:06:40.663872", "MEAN_MOTION": 1.0027241, "ECCENTRICITY": 0.000351, "INCLINATION": 6.2477, "RA_OF_ASC_NODE": 72.7176, "ARG_OF_PERICENTER": 208.8896, "MEAN_ANOMALY": 171.4459, "EPHEMERIS_TYPE": 0, "CLASSIFICATION_TYPE": "U", "NORAD_CAT_ID": 41105, "ELEMENT_SET_NO": 999, "REV_AT_EPOCH": 3673, "BSTAR": 0, "MEAN_MOTION_DOT": -9.9e-07, "MEAN_MOTION_DDOT": 0}, "tle": {"line1": "1 41105U 15074A   25356.04630398 -.00000099  00000+0  00000+0 0  9999", "line2": "2 41105   6.2477  72.7176 0003510 208.8896 171.4459  1.00272410 36736"}}, "geometry": {"type": "Point", "coordinates": [-134.74335990564666, 2.8797637803847858]}}, {"type": "Feature", "properties": {"norad_id": 41752, "name": "INSAT-3DR", "group": "weather", "lat": -0.10219376191851404, "lon": -46.286635032435505, "alt_km": 35741.49382730155, "timestamp": "2025-12-22T09:53:37.052074+00:00", "meta": {"OBJECT_NAME": "INSAT-3DR", "OBJECT_ID": "2016-054A", "EPOCH": "2025-12-22T03:14:42.620064", "MEAN_MOTION": 1.00271607, "ECCENTRICITY": 0.0014171, "INCLINATION": 0.1142, "RA_OF_ASC_NODE": 86.2504, "ARG_OF_PERICENTER": 185.4248, "MEAN_ANOMALY": 301.9366, "EPHEMERIS_TYPE": 0, "CLASSIFICATION_TYPE": "U", "NORAD_CAT_ID": 41752, "ELEMENT_SET_NO": 999, "REV_AT_EPOCH": 3404, "BSTAR": 0, "MEAN_MOTION_DOT": -5.5e-07, "MEAN_MOTION_DDOT": 0}, "tle": {"line1": "1 41752U 16054A   25356.13521551 -.00000055  00000+0  00000+0 0  9998", "line2": "2 41752   0.1142  86.2504 0014171 185.4248 301.9366  1.00271607 34043"}}, "geometry": {"type": "Point", "coordinates": [-46.286635032435505, -0.10219376191851404]}}]}